{
  "type": "FeatureCollection",
  "features": [
    {
      "type": "Feature",
      "properties": {
        "norad_id": 58647,
        "name": "TIANMU-1 13",
        "group": "weather",
        "lat": 64.06266942582322,
        "lon": 3.930066836086192,
        "alt_km": 489.2743210781564,
        "timestamp": "2025-12-25T22:42:16.639992+00:00",
        "meta_object_name": "TIANMU-1 13",
        "meta_object_id": "2023-205C",
        "meta_epoch": "2025-12-25T17:41:40.609248",
        "meta_mean_motion": 15.24684662,
        "meta_eccentricity": 0.0006707,
        "meta_inclination": 97.3614,
        "meta_ra_of_asc_node": 19.1398,
        "meta_arg_of_pericenter": 210.7157,
        "meta_mean_anomaly": 149.3689,
        "meta_ephemeris_type": 0,
        "meta_classification_type": "U",
        "meta_norad_cat_id": 58647,
        "meta_element_set_no": 999,
        "meta_rev_at_epoch": 11105,
        "meta_bstar": 0.00028954,
        "meta_mean_motion_dot": 7.091e-05,
        "meta_mean_motion_ddot": 0,
        "tle_line1": "1 58647U 23205C   25359.73727557  .00007091  00000+0  28954-3 0  9996",
        "tle_line2": "2 58647  97.3614  19.1398 0006707 210.7157 149.3689 15.24684662111058"
      },
      "geometry": {
        "type": "Point",
        "coordinates": [
          3.930066836086192,
          64.06266942582322
        ]
      }
    },
    {
      "type": "Feature",
      "properties": {
        "norad_id": 58648,
        "name": "TIANMU-1 14",
        "group": "weather",
        "lat": 24.35306343484505,
        "lon": -157.9668926519613,
        "alt_km": 488.75427724587917,
        "timestamp": "2025-12-25T22:42:16.640003+00:00",
        "meta_object_name": "TIANMU-1 14",
        "meta_object_id": "2023-205D",
        "meta_epoch": "2025-12-25T17:17:58.746048",
        "meta_mean_motion": 15.24667497,
        "meta_eccentricity": 0.0007398,
        "meta_inclination": 97.3546,
        "meta_ra_of_asc_node": 18.4604,
        "meta_arg_of_pericenter": 216.8239,
        "meta_mean_anomaly": 143.2491,
        "meta_ephemeris_type": 0,
        "meta_classification_type": "U",
        "meta_norad_cat_id": 58648,
        "meta_element_set_no": 999,
        "meta_rev_at_epoch": 11105,
        "meta_bstar": 0.00026964,
        "meta_mean_motion_dot": 6.596e-05,
        "meta_mean_motion_ddot": 0,
        "tle_line1": "1 58648U 23205D   25359.72081882  .00006596  00000+0  26964-3 0  9998",
        "tle_line2": "2 58648  97.3546  18.4604 0007398 216.8239 143.2491 15.24667497111051"
      },
      "geometry": {
        "type": "Point",
        "coordinates": [
          -157.9668926519613,
          24.35306343484505
        ]
      }
    },
    {
      "type": "Feature",
      "properties": {
        "norad_id": 58660,
        "name": "TIANMU-1 19",
        "group": "weather",
        "lat": -30.628991379726465,
        "lon": -73.47799032664865,
        "alt_km": 484.3735696425074,
        "timestamp": "2025-12-25T22:42:16.640013+00:00",
        "meta_object_name": "TIANMU-1 19",
        "meta_object_id": "2023-208A",
        "meta_epoch": "2025-12-25T18:38:29.981760",
        "meta_mean_motion": 15.28086505,
        "meta_eccentricity": 0.0004841,
        "meta_inclination": 97.4387,
        "meta_ra_of_asc_node": 110.7898,
        "meta_arg_of_pericenter": 197.8826,
        "meta_mean_anomaly": 162.2244,
        "meta_ephemeris_type": 0,
        "meta_classification_type": "U",
        "meta_norad_cat_id": 58660,
        "meta_element_set_no": 999,
        "meta_rev_at_epoch": 11081,
        "meta_bstar": 0.00037065,
        "meta_mean_motion_dot": 0.00010083,
        "meta_mean_motion_ddot": 0,
        "tle_line1": "1 58660U 23208A   25359.77673590  .00010083  00000+0  37065-3 0  9993",
        "tle_line2": "2 58660  97.4387 110.7898 0004841 197.8826 162.2244 15.28086505110819"
      },
      "geometry": {
        "type": "Point",
        "coordinates": [
          -73.47799032664865,
          -30.628991379726465
        ]
      }
    },
    {
      "type": "Feature",
      "properties": {
        "norad_id": 58661,
        "name": "TIANMU-1 20",
        "group": "weather",
        "lat": -18.369050213132343,
        "lon": 113.90373308081936,
        "alt_km": 486.12150951365675,
        "timestamp": "2025-12-25T22:42:16.640023+00:00",
        "meta_object_name": "TIANMU-1 20",
        "meta_object_id": "2023-208B",
        "meta_epoch": "2025-12-25T18:04:27.866784",
        "meta_mean_motion": 15.29275363,
        "meta_eccentricity": 0.0006859,
        "meta_inclination": 97.4325,
        "meta_ra_of_asc_node": 111.2265,
        "meta_arg_of_pericenter": 212.3922,
        "meta_mean_anomaly": 147.6898,
        "meta_ephemeris_type": 0,
        "meta_classification_type": "U",
        "meta_norad_cat_id": 58661,
        "meta_element_set_no": 999,
        "meta_rev_at_epoch": 11088,
        "meta_bstar": 0.00034981,
        "meta_mean_motion_dot": 9.868e-05,
        "meta_mean_motion_ddot": 0,
        "tle_line1": "1 58661U 23208B   25359.75310031  .00009868  00000+0  34981-3 0  9993",
        "tle_line2": "2 58661  97.4325 111.2265 0006859 212.3922 147.6898 15.29275363110889"
      },
      "geometry": {
        "type": "Point",
        "coordinates": [
          113.90373308081936,
          -18.369050213132343
        ]
      }
    },
    {
      "type": "Feature",
      "properties": {
        "norad_id": 58662,
        "name": "TIANMU-1 21",
        "group": "weather",
        "lat": 72.05844608792417,
        "lon": -42.818731942615564,
        "alt_km": 464.17166391781484,
        "timestamp": "2025-12-25T22:42:16.640035+00:00",
        "meta_object_name": "TIANMU-1 21",
        "meta_object_id": "2023-208C",
        "meta_epoch": "2025-12-25T19:06:21.860640",
        "meta_mean_motion": 15.31829938,
        "meta_eccentricity": 0.0006498,
        "meta_inclination": 97.4374,
        "meta_ra_of_asc_node": 113.2369,
        "meta_arg_of_pericenter": 206.5738,
        "meta_mean_anomaly": 153.5171,
        "meta_ephemeris_type": 0,
        "meta_classification_type": "U",
        "meta_norad_cat_id": 58662,
        "meta_element_set_no": 999,
        "meta_rev_at_epoch": 11099,
        "meta_bstar": 0.0004024,
        "meta_mean_motion_dot": 0.00012302,
        "meta_mean_motion_ddot": 0,
        "tle_line1": "1 58662U 23208C   25359.79608635  .00012302  00000+0  40240-3 0  9990",
        "tle_line2": "2 58662  97.4374 113.2369 0006498 206.5738 153.5171 15.31829938110998"
      },
      "geometry": {
        "type": "Point",
        "coordinates": [
          -42.818731942615564,
          72.05844608792417
        ]
      }
    },
    {
      "type": "Feature",
      "properties": {
        "norad_id": 58663,
        "name": "TIANMU-1 22",
        "group": "weather",
        "lat": -19.870388262462654,
        "lon": -71.69461873200683,
        "alt_km": 485.63806270874557,
        "timestamp": "2025-12-25T22:42:16.640046+00:00",
        "meta_object_name": "TIANMU-1 22",
        "meta_object_id": "2023-208D",
        "meta_epoch": "2025-12-25T18:41:17.996928",
        "meta_mean_motion": 15.27823291,
        "meta_eccentricity": 0.0003023,
        "meta_inclination": 97.438,
        "meta_ra_of_asc_node": 110.8447,
        "meta_arg_of_pericenter": 220.7907,
        "meta_mean_anomaly": 139.3106,
        "meta_ephemeris_type": 0,
        "meta_classification_type": "U",
        "meta_norad_cat_id": 58663,
        "meta_element_set_no": 999,
        "meta_rev_at_epoch": 11082,
        "meta_bstar": 0.00034815,
        "meta_mean_motion_dot": 9.388e-05,
        "meta_mean_motion_ddot": 0,
        "tle_line1": "1 58663U 23208D   25359.77868052  .00009388  00000+0  34815-3 0  9991",
        "tle_line2": "2 58663  97.4380 110.8447 0003023 220.7907 139.3106 15.27823291110826"
      },
      "geometry": {
        "type": "Point",
        "coordinates": [
          -71.69461873200683,
          -19.870388262462654
        ]
      }
    },
    {
      "type": "Feature",
      "properties": {
        "norad_id": 58700,
        "name": "TIANMU-1 15",
        "group": "weather",
        "lat": 3.146126714521987,
        "lon": 1.7788553531806444,
        "alt_km": 492.459782861707,
        "timestamp": "2025-12-25T22:42:16.640056+00:00",
        "meta_object_name": "TIANMU-1 15",
        "meta_object_id": "2024-004A",
        "meta_epoch": "2025-12-25T17:12:20.997216",
        "meta_mean_motion": 15.24578219,
        "meta_eccentricity": 0.0006091,
        "meta_inclination": 97.463,
        "meta_ra_of_asc_node": 181.1378,
        "meta_arg_of_pericenter": 234.9187,
        "meta_mean_anomaly": 125.148,
        "meta_ephemeris_type": 0,
        "meta_classification_type": "U",
        "meta_norad_cat_id": 58700,
        "meta_element_set_no": 999,
        "meta_rev_at_epoch": 10932,
        "meta_bstar": 0.0003207,
        "meta_mean_motion_dot": 7.835e-05,
        "meta_mean_motion_ddot": 0,
        "tle_line1": "1 58700U 24004A   25359.71690969  .00007835  00000+0  32070-3 0  9998",
        "tle_line2": "2 58700  97.4630 181.1378 0006091 234.9187 125.1480 15.24578219109320"
      },
      "geometry": {
        "type": "Point",
        "coordinates": [
          1.7788553531806444,
          3.146126714521987
        ]
      }
    }
  ]
}